*******************************************************************************
Ephemeris / WWW_USER Mon Mar 24 11:09:31 2025 Pasadena, USA      / Horizons    
*******************************************************************************
Target body name: (2018 VS8)                      {source: JPL#8}
Center body name: Earth (399)                     {source: DE441}
Center-site name: Mauna Kea
*******************************************************************************
Start time      : A.D. 2018-Aug-04 05:07:00.0000 UT      
Stop  time      : A.D. 2018-Aug-04 15:49:00.0000 UT      
Step-size       : 1 minutes
*******************************************************************************
Target pole/equ : undefined
Target radii    : undefined                                                    
Center geodetic : 204.5278, 19.8260847, 4.21024   {E-lon(deg),Lat(deg),Alt(km)}
Center cylindric: 204.5278, 6006.35451, 2151.0229 {E-lon(deg),Dxy(km),Dz(km)}
Center pole/equ : ITRF93                          {East-longitude positive}
Center radii    : 6378.137, 6378.137, 6356.752 km {Equator_a, b, pole_c}       
Target primary  : Sun
Vis. interferer : MOON (R_eq= 1737.400) km        {source: DE441}
Rel. light bend : Sun                             {source: DE441}
Rel. lght bnd GM: 1.3271E+11 km^3/s^2                                          
Small-body perts: Yes                             {source: SB441-N16}
Atmos refraction: NO (AIRLESS)
RA format       : HMS
Time format     : CAL 
Calendar mode   : Mixed Julian/Gregorian
RTS-only print  : NO       
EOP file        : eop.250321.p250617                                           
EOP coverage    : DATA-BASED 1962-JAN-20 TO 2025-MAR-21. PREDICTS-> 2025-JUN-16
Units conversion: 1 au= 149597870.700 km, c= 299792.458 km/s, 1 day= 86400.0 s 
Table cut-offs 1: Elevation (-90.0deg=NO ),Airmass (>38.000=NO), Daylight (YES)
Table cut-offs 2: Solar elongation (  0.0,180.0=NO ),Local Hour Angle( 0.0=NO )
Table cut-offs 3: RA/DEC angular rate (     0.0=NO )                           
*******************************************************************************
Initial IAU76/J2000 heliocentric ecliptic osculating elements (au, days, deg.):
  EPOCH=  2458433.5 ! 2018-Nov-11.00 (TDB)         Residual RMS= .33953        
   EC= .5263784885368822   QR= .9373233613851428   TP= 2458465.1575556668      
   OM= 53.89076972236643   W=  33.71683445616237   IN= 3.430463171034721       
  Equivalent ICRF heliocentric cartesian coordinates (au, au/d):
   X= 6.888560011548344E-01  Y= 6.928655939663307E-01  Z= 2.929974091538562E-01
  VX=-1.813811938800288E-02 VY= 8.693003909227039E-03 VZ= 5.111678677431928E-03
Asteroid physical parameters (km, seconds, rotational period in hours):        
   GM= n.a.                RAD= n.a.               ROTPER= n.a.                
   H= 27.2                 G= .150                 B-V= n.a.                   
                           ALBEDO= n.a.            STYP= n.a.                  
*******************************************************************************
 Date__(UT)__HR:MN     R.A._________(ICRF)_________DEC
******************************************************
$$SOE
 2018-Aug-04 09:13     00 43 49.140915 -01 49 44.56575
 2018-Aug-04 09:14     00 43 49.188517 -01 49 44.40854
 2018-Aug-04 09:15     00 43 49.236108 -01 49 44.25133
 2018-Aug-04 09:16     00 43 49.283687 -01 49 44.09412
 2018-Aug-04 09:17     00 43 49.331256 -01 49 43.93691
 2018-Aug-04 09:18     00 43 49.378813 -01 49 43.77971
 2018-Aug-04 09:19     00 43 49.426359 -01 49 43.62251
 2018-Aug-04 09:20     00 43 49.473895 -01 49 43.46531
 2018-Aug-04 09:21     00 43 49.521419 -01 49 43.30811
 2018-Aug-04 09:22     00 43 49.568932 -01 49 43.15092
 2018-Aug-04 09:23     00 43 49.616435 -01 49 42.99372
 2018-Aug-04 09:24     00 43 49.663926 -01 49 42.83653
 2018-Aug-04 09:25     00 43 49.711406 -01 49 42.67934
 2018-Aug-04 09:26     00 43 49.758876 -01 49 42.52216
 2018-Aug-04 09:27     00 43 49.806334 -01 49 42.36497
 2018-Aug-04 09:28     00 43 49.853782 -01 49 42.20778
 2018-Aug-04 09:29     00 43 49.901218 -01 49 42.05060
 2018-Aug-04 09:30     00 43 49.948644 -01 49 41.89342
 2018-Aug-04 09:31     00 43 49.996059 -01 49 41.73624
 2018-Aug-04 09:32     00 43 50.043463 -01 49 41.57907
 2018-Aug-04 09:33     00 43 50.090856 -01 49 41.42189
 2018-Aug-04 09:34     00 43 50.138238 -01 49 41.26472
 2018-Aug-04 09:35     00 43 50.185609 -01 49 41.10754
 2018-Aug-04 09:36     00 43 50.232970 -01 49 40.95037
 2018-Aug-04 09:37  m  00 43 50.280320 -01 49 40.79320
 2018-Aug-04 09:38  m  00 43 50.327659 -01 49 40.63604
 2018-Aug-04 09:39  m  00 43 50.374987 -01 49 40.47887
 2018-Aug-04 09:40  m  00 43 50.422305 -01 49 40.32171
 2018-Aug-04 09:41  m  00 43 50.469612 -01 49 40.16454
 2018-Aug-04 09:42  m  00 43 50.516908 -01 49 40.00738
 2018-Aug-04 09:43  m  00 43 50.564194 -01 49 39.85022
 2018-Aug-04 09:44  m  00 43 50.611468 -01 49 39.69306
 2018-Aug-04 09:45  m  00 43 50.658733 -01 49 39.53590
 2018-Aug-04 09:46  m  00 43 50.705986 -01 49 39.37875
 2018-Aug-04 09:47  m  00 43 50.753229 -01 49 39.22159
 2018-Aug-04 09:48  m  00 43 50.800462 -01 49 39.06444
 2018-Aug-04 09:49  m  00 43 50.847683 -01 49 38.90729
 2018-Aug-04 09:50  m  00 43 50.894895 -01 49 38.75014
 2018-Aug-04 09:51  m  00 43 50.942095 -01 49 38.59299
 2018-Aug-04 09:52  m  00 43 50.989285 -01 49 38.43584
 2018-Aug-04 09:53  m  00 43 51.036465 -01 49 38.27870
 2018-Aug-04 09:54  m  00 43 51.083634 -01 49 38.12155
 2018-Aug-04 09:55  m  00 43 51.130793 -01 49 37.96441
 2018-Aug-04 09:56  m  00 43 51.177941 -01 49 37.80727
 2018-Aug-04 09:57  m  00 43 51.225079 -01 49 37.65012
 2018-Aug-04 09:58  m  00 43 51.272207 -01 49 37.49298
 2018-Aug-04 09:59  m  00 43 51.319324 -01 49 37.33584
 2018-Aug-04 10:00  m  00 43 51.366431 -01 49 37.17871
 2018-Aug-04 10:01  m  00 43 51.413527 -01 49 37.02157
 2018-Aug-04 10:02  m  00 43 51.460613 -01 49 36.86443
 2018-Aug-04 10:03  m  00 43 51.507689 -01 49 36.70730
 2018-Aug-04 10:04  m  00 43 51.554755 -01 49 36.55017
 2018-Aug-04 10:05  m  00 43 51.601810 -01 49 36.39303
 2018-Aug-04 10:06  m  00 43 51.648855 -01 49 36.23590
 2018-Aug-04 10:07  m  00 43 51.695890 -01 49 36.07877
 2018-Aug-04 10:08  m  00 43 51.742915 -01 49 35.92164
 2018-Aug-04 10:09  m  00 43 51.789930 -01 49 35.76451
 2018-Aug-04 10:10  m  00 43 51.836934 -01 49 35.60738
 2018-Aug-04 10:11  m  00 43 51.883929 -01 49 35.45026
 2018-Aug-04 10:12  m  00 43 51.930913 -01 49 35.29313
 2018-Aug-04 10:13  m  00 43 51.977887 -01 49 35.13601
 2018-Aug-04 10:14  m  00 43 52.024851 -01 49 34.97888
 2018-Aug-04 10:15  m  00 43 52.071805 -01 49 34.82176
 2018-Aug-04 10:16  m  00 43 52.118750 -01 49 34.66464
 2018-Aug-04 10:17  m  00 43 52.165684 -01 49 34.50751
 2018-Aug-04 10:18  m  00 43 52.212608 -01 49 34.35039
 2018-Aug-04 10:19  m  00 43 52.259522 -01 49 34.19327
 2018-Aug-04 10:20  m  00 43 52.306427 -01 49 34.03615
 2018-Aug-04 10:21  m  00 43 52.353322 -01 49 33.87903
 2018-Aug-04 10:22  m  00 43 52.400206 -01 49 33.72192
 2018-Aug-04 10:23  m  00 43 52.447081 -01 49 33.56480
 2018-Aug-04 10:24  m  00 43 52.493946 -01 49 33.40768
 2018-Aug-04 10:25  m  00 43 52.540802 -01 49 33.25057
 2018-Aug-04 10:26  m  00 43 52.587647 -01 49 33.09345
 2018-Aug-04 10:27  m  00 43 52.634483 -01 49 32.93634
 2018-Aug-04 10:28  m  00 43 52.681310 -01 49 32.77922
 2018-Aug-04 10:29  m  00 43 52.728126 -01 49 32.62211
 2018-Aug-04 10:30  m  00 43 52.774933 -01 49 32.46499
 2018-Aug-04 10:31  m  00 43 52.821731 -01 49 32.30788
 2018-Aug-04 10:32  m  00 43 52.868518 -01 49 32.15077
 2018-Aug-04 10:33  m  00 43 52.915297 -01 49 31.99366
 2018-Aug-04 10:34  m  00 43 52.962065 -01 49 31.83655
 2018-Aug-04 10:35  m  00 43 53.008824 -01 49 31.67944
 2018-Aug-04 10:36  m  00 43 53.055574 -01 49 31.52233
 2018-Aug-04 10:37  m  00 43 53.102314 -01 49 31.36522
 2018-Aug-04 10:38  m  00 43 53.149045 -01 49 31.20811
 2018-Aug-04 10:39  m  00 43 53.195767 -01 49 31.05100
 2018-Aug-04 10:40  m  00 43 53.242479 -01 49 30.89389
 2018-Aug-04 10:41  m  00 43 53.289182 -01 49 30.73678
 2018-Aug-04 10:42  m  00 43 53.335875 -01 49 30.57967
 2018-Aug-04 10:43  m  00 43 53.382560 -01 49 30.42257
 2018-Aug-04 10:44  m  00 43 53.429235 -01 49 30.26546
 2018-Aug-04 10:45  m  00 43 53.475900 -01 49 30.10835
 2018-Aug-04 10:46  m  00 43 53.522557 -01 49 29.95125
 2018-Aug-04 10:47  m  00 43 53.569204 -01 49 29.79414
 2018-Aug-04 10:48  m  00 43 53.615843 -01 49 29.63703
 2018-Aug-04 10:49  m  00 43 53.662472 -01 49 29.47993
 2018-Aug-04 10:50  m  00 43 53.709092 -01 49 29.32282
 2018-Aug-04 10:51  m  00 43 53.755703 -01 49 29.16572
 2018-Aug-04 10:52  m  00 43 53.802305 -01 49 29.00861
 2018-Aug-04 10:53  m  00 43 53.848898 -01 49 28.85151
 2018-Aug-04 10:54  m  00 43 53.895483 -01 49 28.69440
 2018-Aug-04 10:55  m  00 43 53.942058 -01 49 28.53730
 2018-Aug-04 10:56  m  00 43 53.988624 -01 49 28.38019
 2018-Aug-04 10:57  m  00 43 54.035182 -01 49 28.22309
 2018-Aug-04 10:58  m  00 43 54.081731 -01 49 28.06598
 2018-Aug-04 10:59  m  00 43 54.128271 -01 49 27.90888
 2018-Aug-04 11:00  m  00 43 54.174802 -01 49 27.75177
 2018-Aug-04 11:01  m  00 43 54.221325 -01 49 27.59467
 2018-Aug-04 11:02  m  00 43 54.267838 -01 49 27.43756
 2018-Aug-04 11:03  m  00 43 54.314344 -01 49 27.28046
 2018-Aug-04 11:04  m  00 43 54.360840 -01 49 27.12335
 2018-Aug-04 11:05  m  00 43 54.407328 -01 49 26.96625
 2018-Aug-04 11:06  m  00 43 54.453807 -01 49 26.80914
 2018-Aug-04 11:07  m  00 43 54.500278 -01 49 26.65204
 2018-Aug-04 11:08  m  00 43 54.546741 -01 49 26.49493
 2018-Aug-04 11:09  m  00 43 54.593195 -01 49 26.33783
 2018-Aug-04 11:10  m  00 43 54.639640 -01 49 26.18072
 2018-Aug-04 11:11  m  00 43 54.686077 -01 49 26.02362
 2018-Aug-04 11:12  m  00 43 54.732506 -01 49 25.86651
 2018-Aug-04 11:13  m  00 43 54.778926 -01 49 25.70941
 2018-Aug-04 11:14  m  00 43 54.825338 -01 49 25.55230
 2018-Aug-04 11:15  m  00 43 54.871742 -01 49 25.39519
